PROBA-1                 
1 26958U 01049B   26160.30412042  .00002933  00000+0  19134-3 0  9992
2 26958  97.9600 168.5614 0055572 148.3085 212.1508 15.07462919342436
CUTE-1 (CO-55)          
1 27844U 03031E   26160.23963294  .00000266  00000+0  13415-3 0  9995
2 27844  98.6735 168.8984 0009003 201.6668 158.4131 14.24330800190547
CUBESAT XI-IV (CO-57)   
1 27848U 03031J   26160.01325554  .00000222  00000+0  11652-3 0  9999
2 27848  98.6766 168.3941 0008561 222.5153 137.5363 14.23616414190218
APRIZESAT 4             
1 35684U 09041D   26160.09779993  .00000574  00000+0  75109-4 0  9999
2 35684  98.1412 235.2570 0042967 349.6861  10.3466 14.83868357910162
APRIZESAT 3             
1 35686U 09041F   26160.14077702  .00001181  00000+0  10651-3 0  9991
2 35686  98.2052 312.9801 0062793  93.5826 267.2578 14.96217497915170
PROBA-2                 
1 36037U 09059B   26160.26250232  .00000167  00000+0  49492-4 0  9994
2 36037  98.2451 343.7253 0012214 309.0408  50.9701 14.54858955880373
APRIZESAT 5             
1 37792U 11044E   26159.76500818  .00001235  00000+0  16297-3 0  9994
2 37792  98.2453  92.5668 0052995  31.1827 329.2511 14.81058298797540
APRIZESAT 6             
1 37793U 11044F   26160.29805118  .00000648  00000+0  98518-4 0  9990
2 37793  98.2371  70.6364 0044380 110.5168   4.9826 14.76904112795980
PROBA-V                 
1 39159U 13021A   26160.17697287  .00000069  00000+0  48089-4 0  9993
2 39159  98.3581 139.1793 0004781 142.6911 217.4601 14.23595264679970
APRIZESAT 7             
1 39416U 13066A   26160.10367328  .00000967  00000+0  10116-3 0  9997
2 39416  97.7704 113.4398 0034474 236.8765 122.9144 14.91547053680025
APRIZESAT 8             
1 39425U 13066K   26159.80102691  .00001074  00000+0  12216-3 0  9995
2 39425  97.8218 107.3862 0044839 314.9851  44.7734 14.87636587678427
BUGSAT-1 (TITA)         
1 40014U 14033E   26160.24533926  .00005586  00000+0  29617-3 0  9990
2 40014  98.0418 252.3302 0027477 205.5281 154.4595 15.15501136654633
SAUDISAT 4              
1 40016U 14033G   26160.27379183  .00000676  00000+0  95581-4 0  9997
2 40016  97.7574 306.6828 0046228  98.9378 261.7071 14.79533680644904
APRIZESAT 9             
1 40018U 14033J   26160.19840912  .00000598  00000+0  95359-4 0  9999
2 40018  97.9050 293.5927 0065161 225.1280 134.4627 14.74203721642382
APRIZESAT 10            
1 40019U 14033K   26160.30350137  .00000368  00000+0  65867-4 0  9994
2 40019  97.9640 287.4392 0077584 299.4562  59.8920 14.70875579641090
TECHDEMOSAT-1 (TDS-1)   
1 40076U 14037H   26160.22357611  .00006572  00000+0  37464-3 0  9990
2 40076  98.3812 151.6478 0004602 303.4841  56.5948 15.13175953647023
TECHNOSAT               
1 42829U 17042E   26159.87151329  .00002942  00000+0  21128-3 0  9991
2 42829  97.4266 317.8474 0018845 120.4695 239.8397 15.04904069485453
FLYING LAPTOP           
1 42831U 17042G   26160.31978546  .00003443  00000+0  27257-3 0  9999
2 42831  97.4658 316.1579 0019156 147.3152 212.9263 15.01094180485276
HAWK-A                  
1 43765U 18099H   26160.07834817  .00005409  00000+0  21928-3 0  9997
2 43765  97.3918 212.4200 0033473 315.7969  44.0595 15.24546879411863
HAWK-B                  
1 43794U 18099AN  26160.09024326  .00005257  00000+0  22543-3 0  9992
2 43794  97.3968 211.8640 0031129 334.5859  25.3845 15.22735797411805
HAWK-C                  
1 43799U 18099AT  26160.13868052  .00006596  00000+0  23893-3 0  9990
2 43799  97.3894 213.3527 0039145 315.4758  44.3338 15.27990692412688
SALSAT                  
1 46495U 20068K   26159.90359287  .00007690  00000+0  27004-3 0  9997
2 46495  97.8856 162.4647 0008807 341.8369  18.2554 15.29680035314091
HAWK-2C                 
1 47502U 21006CT  26160.13201993  .00005612  00000+0  16986-3 0  9996
2 47502  97.2285 204.6031 0005772 216.0578 144.0276 15.34565658298268
HAWK-2A                 
1 47505U 21006CW  26160.06938485  .00005440  00000+0  16467-3 0  9997
2 47505  97.2326 205.2147 0005213 220.2376 139.8482 15.34579486298259
HAWK-2B                 
1 47508U 21006CZ  26160.06535226  .00006309  00000+0  19010-3 0  9998
2 47508  97.2197 203.5556 0005750 218.2797 141.8039 15.34654845298257
HAWK-3B                 
1 48931U 21059BE  26160.28960520  .00048563  00000+0  42275-3 0  9997
2 48931  97.6678 356.2550 0003701   5.9101 354.2203 15.68895648276614
HAWK-3C                 
1 48948U 21059BX  26160.28928567  .00040694  00000+0  35489-3 0  9996
2 48948  97.6797   1.9265 0004280   8.6493 351.4841 15.68883696276615
HAWK-3A                 
1 48957U 21059CG  26160.09784262  .00039715  00000+0  34666-3 0  9995
2 48957  97.6738 358.9287 0004300  11.6498 348.4861 15.68866705276587
HAWK-5C                 
1 52754U 22057Y   26160.23888498  .00017664  00000+0  30443-3 0  9994
2 52754  97.6590 319.3963 0005381 106.1820 254.0024 15.51109128225111
HAWK-5B                 
1 52756U 22057AA  26160.17422534  .00017411  00000+0  30008-3 0  9991
2 52756  97.6596 317.6760 0006033  99.4074 260.7859 15.51107127225101
